SL-14 R/B               
1 16792U 86046B   26026.70993830  .00000792  00000+0  88486-4 0  9999
2 16792  82.4833 119.8471 0023319  10.5812 349.5890 14.85546117120172
SL-14 R/B               
1 16882U 86055B   26026.86021017  .00001000  00000+0  11240-3 0  9991
2 16882  82.5222 165.9751 0020333 109.2469  51.5937 14.85592856113158
AJISAI (EGS)            
1 16908U 86061A   26026.79056561 -.00000077  00000+0  14119-3 0  9993
2 16908  50.0061 222.1883 0011298 179.3102 228.9458 12.44515265462788
COSMOS 1812             
1 17295U 87003A   26026.85165793  .00226456  00000+0  79548-3 0  9992
2 17295  82.4801 242.7582 0001022  32.1221 328.0112 15.88624651137784
SL-14 R/B               
1 17567U 87024B   26026.75862854  .00000862  00000+0  95359-4 0  9998
2 17567  82.5303 132.1669 0019241  43.2565 317.0158 14.86087336 81908
COSMOS 1833             
1 17589U 87027A   26026.81129295  .00000213  00000+0  13931-3 0  9992
2 17589  70.9196  54.0355 0024594 270.1164  89.7138 14.13051768  4401
SL-16 R/B               
1 17590U 87027B   26026.34154321  .00000161  00000+0  10352-3 0  9996
2 17590  71.0037   5.7300 0005883 210.0151 150.0637 14.17160175  9342
SL-14 R/B               
1 17912U 87038B   26026.86671451  .00000967  00000+0  10953-3 0  9992
2 17912  82.5037 336.1946 0017991 306.0646  53.8903 14.85321647 73022
COSMOS 1844             
1 17973U 87041A   26026.67851009 -.00000111  00000+0 -32499-4 0  9994
2 17973  70.8990 122.7908 0028467  85.3287 275.1085 14.14534833997640
SL-14 R/B               
1 18153U 87055B   26026.51407701  .00000771  00000+0  86053-4 0  9994
2 18153  82.4978  28.7800 0021425 149.2480 210.9996 14.85575119 63679
COSMOS 1867             
1 18187U 87060A   26026.52423412  .00000032  00000+0  49542-4 0  9997
2 18187  65.0102  64.7878 0013972 275.4124  84.5366 14.31495579 13901
SL-14 R/B               
1 18749U 88001B   26026.50655107  .00000697  00000+0  77780-4 0  9995
2 18749  82.5103 235.0401 0018653  22.4081 337.7946 14.85476886 35762
