CCSDS_OMM_VERS = 2.0
CREATION_DATE  = 
ORIGINATOR     = 

OBJECT_NAME    = SL-14 R/B
OBJECT_ID      = 1986-046B
CENTER_NAME    = EARTH
REF_FRAME      = TEME
TIME_SYSTEM    = UTC
MEAN_ELEMENT_THEORY = SGP/SGP4

EPOCH          = 2026-01-26T17:02:18.669120
MEAN_MOTION    = 14.85546117
ECCENTRICITY   = .0023319
INCLINATION    = 82.4833
RA_OF_ASC_NODE = 119.8471
ARG_OF_PERICENTER = 10.5812
MEAN_ANOMALY   = 349.5890

EPHEMERIS_TYPE = 0
CLASSIFICATION_TYPE = U
NORAD_CAT_ID   = 16792
ELEMENT_SET_NO = 999
REV_AT_EPOCH   = 12017
BSTAR          = .88486E-4
MEAN_MOTION_DOT = .792E-5
MEAN_MOTION_DDOT = 0

CCSDS_OMM_VERS = 2.0
CREATION_DATE  = 
ORIGINATOR     = 

OBJECT_NAME    = SL-14 R/B
OBJECT_ID      = 1986-055B
CENTER_NAME    = EARTH
REF_FRAME      = TEME
TIME_SYSTEM    = UTC
MEAN_ELEMENT_THEORY = SGP/SGP4

EPOCH          = 2026-01-26T20:38:42.158688
MEAN_MOTION    = 14.85592856
ECCENTRICITY   = .0020333
INCLINATION    = 82.5222
RA_OF_ASC_NODE = 165.9751
ARG_OF_PERICENTER = 109.2469
MEAN_ANOMALY   = 51.5937

EPHEMERIS_TYPE = 0
CLASSIFICATION_TYPE = U
NORAD_CAT_ID   = 16882
ELEMENT_SET_NO = 999
REV_AT_EPOCH   = 11315
BSTAR          = .1124E-3
MEAN_MOTION_DOT = .1E-4
MEAN_MOTION_DDOT = 0

CCSDS_OMM_VERS = 2.0
CREATION_DATE  = 
ORIGINATOR     = 

OBJECT_NAME    = AJISAI (EGS)
OBJECT_ID      = 1986-061A
CENTER_NAME    = EARTH
REF_FRAME      = TEME
TIME_SYSTEM    = UTC
MEAN_ELEMENT_THEORY = SGP/SGP4

EPOCH          = 2026-01-26T18:58:24.868704
MEAN_MOTION    = 12.44515265
ECCENTRICITY   = .0011298
INCLINATION    = 50.0061
RA_OF_ASC_NODE = 222.1883
ARG_OF_PERICENTER = 179.3102
MEAN_ANOMALY   = 228.9458

EPHEMERIS_TYPE = 0
CLASSIFICATION_TYPE = U
NORAD_CAT_ID   = 16908
ELEMENT_SET_NO = 999
REV_AT_EPOCH   = 46278
BSTAR          = .14119E-3
MEAN_MOTION_DOT = -.77E-6
MEAN_MOTION_DDOT = 0

CCSDS_OMM_VERS = 2.0
CREATION_DATE  = 
ORIGINATOR     = 

OBJECT_NAME    = COSMOS 1812
OBJECT_ID      = 1987-003A
CENTER_NAME    = EARTH
REF_FRAME      = TEME
TIME_SYSTEM    = UTC
MEAN_ELEMENT_THEORY = SGP/SGP4

EPOCH          = 2026-01-26T20:26:23.245152
MEAN_MOTION    = 15.88624651
ECCENTRICITY   = .0001022
INCLINATION    = 82.4801
RA_OF_ASC_NODE = 242.7582
ARG_OF_PERICENTER = 32.1221
MEAN_ANOMALY   = 328.0112

EPHEMERIS_TYPE = 0
CLASSIFICATION_TYPE = U
NORAD_CAT_ID   = 17295
ELEMENT_SET_NO = 999
REV_AT_EPOCH   = 13778
BSTAR          = .79548E-3
MEAN_MOTION_DOT = .226456E-2
MEAN_MOTION_DDOT = 0

CCSDS_OMM_VERS = 2.0
CREATION_DATE  = 
ORIGINATOR     = 

OBJECT_NAME    = SL-14 R/B
OBJECT_ID      = 1987-024B
CENTER_NAME    = EARTH
REF_FRAME      = TEME
TIME_SYSTEM    = UTC
MEAN_ELEMENT_THEORY = SGP/SGP4

EPOCH          = 2026-01-26T18:12:25.505856
MEAN_MOTION    = 14.86087336
ECCENTRICITY   = .0019241
INCLINATION    = 82.5303
RA_OF_ASC_NODE = 132.1669
ARG_OF_PERICENTER = 43.2565
MEAN_ANOMALY   = 317.0158

EPHEMERIS_TYPE = 0
CLASSIFICATION_TYPE = U
NORAD_CAT_ID   = 17567
ELEMENT_SET_NO = 999
REV_AT_EPOCH   = 8190
BSTAR          = .95359E-4
MEAN_MOTION_DOT = .862E-5
MEAN_MOTION_DDOT = 0

CCSDS_OMM_VERS = 2.0
CREATION_DATE  = 
ORIGINATOR     = 

OBJECT_NAME    = COSMOS 1833
OBJECT_ID      = 1987-027A
CENTER_NAME    = EARTH
REF_FRAME      = TEME
TIME_SYSTEM    = UTC
MEAN_ELEMENT_THEORY = SGP/SGP4

EPOCH          = 2026-01-26T19:28:15.710880
MEAN_MOTION    = 14.13051768
ECCENTRICITY   = .0024594
INCLINATION    = 70.9196
RA_OF_ASC_NODE = 54.0355
ARG_OF_PERICENTER = 270.1164
MEAN_ANOMALY   = 89.7138

EPHEMERIS_TYPE = 0
CLASSIFICATION_TYPE = U
NORAD_CAT_ID   = 17589
ELEMENT_SET_NO = 999
REV_AT_EPOCH   = 440
BSTAR          = .13931E-3
MEAN_MOTION_DOT = .213E-5
MEAN_MOTION_DDOT = 0

CCSDS_OMM_VERS = 2.0
CREATION_DATE  = 
ORIGINATOR     = 

OBJECT_NAME    = SL-16 R/B
OBJECT_ID      = 1987-027B
CENTER_NAME    = EARTH
REF_FRAME      = TEME
TIME_SYSTEM    = UTC
MEAN_ELEMENT_THEORY = SGP/SGP4

EPOCH          = 2026-01-26T08:11:49.333344
MEAN_MOTION    = 14.17160175
ECCENTRICITY   = .00058831
INCLINATION    = 71.0037
RA_OF_ASC_NODE = 5.7300
ARG_OF_PERICENTER = 210.0151
MEAN_ANOMALY   = 150.0637

EPHEMERIS_TYPE = 0
CLASSIFICATION_TYPE = U
NORAD_CAT_ID   = 17590
ELEMENT_SET_NO = 999
REV_AT_EPOCH   = 934
BSTAR          = .10351504E-3
MEAN_MOTION_DOT = .161E-5
MEAN_MOTION_DDOT = 0

CCSDS_OMM_VERS = 2.0
CREATION_DATE  = 
ORIGINATOR     = 

OBJECT_NAME    = SL-14 R/B
OBJECT_ID      = 1987-038B
CENTER_NAME    = EARTH
REF_FRAME      = TEME
TIME_SYSTEM    = UTC
MEAN_ELEMENT_THEORY = SGP/SGP4

EPOCH          = 2026-01-26T20:48:04.133664
MEAN_MOTION    = 14.85321647
ECCENTRICITY   = .0017991
INCLINATION    = 82.5037
RA_OF_ASC_NODE = 336.1946
ARG_OF_PERICENTER = 306.0646
MEAN_ANOMALY   = 53.8903

EPHEMERIS_TYPE = 0
CLASSIFICATION_TYPE = U
NORAD_CAT_ID   = 17912
ELEMENT_SET_NO = 999
REV_AT_EPOCH   = 7302
BSTAR          = .10953E-3
MEAN_MOTION_DOT = .967E-5
MEAN_MOTION_DDOT = 0

CCSDS_OMM_VERS = 2.0
CREATION_DATE  = 
ORIGINATOR     = 

OBJECT_NAME    = COSMOS 1844
OBJECT_ID      = 1987-041A
CENTER_NAME    = EARTH
REF_FRAME      = TEME
TIME_SYSTEM    = UTC
MEAN_ELEMENT_THEORY = SGP/SGP4

EPOCH          = 2026-01-26T16:17:03.271776
MEAN_MOTION    = 14.14534833
ECCENTRICITY   = .0028467
INCLINATION    = 70.8990
RA_OF_ASC_NODE = 122.7908
ARG_OF_PERICENTER = 85.3287
MEAN_ANOMALY   = 275.1085

EPHEMERIS_TYPE = 0
CLASSIFICATION_TYPE = U
NORAD_CAT_ID   = 17973
ELEMENT_SET_NO = 999
REV_AT_EPOCH   = 99764
BSTAR          = -.32499E-4
MEAN_MOTION_DOT = -.111E-5
MEAN_MOTION_DDOT = 0

CCSDS_OMM_VERS = 2.0
CREATION_DATE  = 
ORIGINATOR     = 

OBJECT_NAME    = SL-14 R/B
OBJECT_ID      = 1987-055B
CENTER_NAME    = EARTH
REF_FRAME      = TEME
TIME_SYSTEM    = UTC
MEAN_ELEMENT_THEORY = SGP/SGP4

EPOCH          = 2026-01-26T12:20:16.253664
MEAN_MOTION    = 14.85575119
ECCENTRICITY   = .0021425
INCLINATION    = 82.4978
RA_OF_ASC_NODE = 28.7800
ARG_OF_PERICENTER = 149.2480
MEAN_ANOMALY   = 210.9996

EPHEMERIS_TYPE = 0
CLASSIFICATION_TYPE = U
NORAD_CAT_ID   = 18153
ELEMENT_SET_NO = 999
REV_AT_EPOCH   = 6367
BSTAR          = .86052984E-4
MEAN_MOTION_DOT = .771E-5
MEAN_MOTION_DDOT = 0

CCSDS_OMM_VERS = 2.0
CREATION_DATE  = 
ORIGINATOR     = 

OBJECT_NAME    = COSMOS 1867
OBJECT_ID      = 1987-060A
CENTER_NAME    = EARTH
REF_FRAME      = TEME
TIME_SYSTEM    = UTC
MEAN_ELEMENT_THEORY = SGP/SGP4

EPOCH          = 2026-01-26T12:34:53.827968
MEAN_MOTION    = 14.31495579
ECCENTRICITY   = .0013972
INCLINATION    = 65.0102
RA_OF_ASC_NODE = 64.7878
ARG_OF_PERICENTER = 275.4124
MEAN_ANOMALY   = 84.5366

EPHEMERIS_TYPE = 0
CLASSIFICATION_TYPE = U
NORAD_CAT_ID   = 18187
ELEMENT_SET_NO = 999
REV_AT_EPOCH   = 1390
BSTAR          = .49542E-4
MEAN_MOTION_DOT = .32E-6
MEAN_MOTION_DDOT = 0

CCSDS_OMM_VERS = 2.0
CREATION_DATE  = 
ORIGINATOR     = 

OBJECT_NAME    = SL-14 R/B
OBJECT_ID      = 1988-001B
CENTER_NAME    = EARTH
REF_FRAME      = TEME
TIME_SYSTEM    = UTC
MEAN_ELEMENT_THEORY = SGP/SGP4

EPOCH          = 2026-01-26T12:09:26.012448
MEAN_MOTION    = 14.85476886
ECCENTRICITY   = .00186535
INCLINATION    = 82.5103
RA_OF_ASC_NODE = 235.0401
ARG_OF_PERICENTER = 22.4081
MEAN_ANOMALY   = 337.7946

EPHEMERIS_TYPE = 0
CLASSIFICATION_TYPE = U
NORAD_CAT_ID   = 18749
ELEMENT_SET_NO = 999
REV_AT_EPOCH   = 3576
BSTAR          = .77780193E-4
MEAN_MOTION_DOT = .697E-5
MEAN_MOTION_DDOT = 0

